LEMUR-2-SATCHMO         
1 41991U 17008AV  17345.75430551  .00001484  00000-0  66423-4 0  9992
2 41991  97.4749  46.3883 0006408 301.2691  58.7918 15.22860024 44879
